$$SOE
2460154.500000000, A.D. 2023-Jul-29 00:00:00.0000, -4.478064806078650E+08, -7.260602042807683E+07, 9.975724500982070E+07,
2460161.500000000, A.D. 2023-Aug-05 00:00:00.0000, -4.462407589309574E+08, -8.160738692225718E+07, 1.002213244141442E+08,
2460168.500000000, A.D. 2023-Aug-12 00:00:00.0000, -4.444590578541716E+08, -9.056926189617898E+07, 1.006368840835104E+08,
2460175.500000000, A.D. 2023-Aug-19 00:00:00.0000, -4.424623013186363E+08, -9.948732061922812E+07, 1.010037363369301E+08,
2460182.500000000, A.D. 2023-Aug-26 00:00:00.0000, -4.402514546472231E+08, -1.083572484305473E+08, 1.013217030186689E+08,
2460189.500000000, A.D. 2023-Sep-02 00:00:00.0000, -4.378275249430366E+08, -1.171747390672255E+08, 1.015906154332252E+08,
2460196.500000000, A.D. 2023-Sep-09 00:00:00.0000, -4.351915615744767E+08, -1.259354931267996E+08, 1.018103142917583E+08,
2460203.500000000, A.D. 2023-Sep-16 00:00:00.0000, -4.323446565783965E+08, -1.346352167229367E+08, 1.019806496498853E+08,
2460210.500000000, A.D. 2023-Sep-23 00:00:00.0000, -4.292879445650505E+08, -1.432696200483601E+08, 1.021014808222413E+08,
2460217.500000000, A.D. 2023-Sep-30 00:00:00.0000, -4.260226024643967E+08, -1.518344146551902E+08, 1.021726764023678E+08,
2460224.500000000, A.D. 2023-Oct-07 00:00:00.0000, -4.225498514676583E+08, -1.603253099970377E+08, 1.021941145596311E+08,
2460231.500000000, A.D. 2023-Oct-14 00:00:00.0000, -4.188709601259670E+08, -1.687380125482402E+08, 1.021656832477895E+08,
2460238.500000000, A.D. 2023-Oct-21 00:00:00.0000, -4.149872453800126E+08, -1.770682258987739E+08, 1.020872801611546E+08,
2460245.500000000, A.D. 2023-Oct-28 00:00:00.0000, -4.109000729459884E+08, -1.853116495649977E+08, 1.019588127542082E+08,
2460252.500000000, A.D. 2023-Nov-04 00:00:00.0000, -4.066108583080063E+08, -1.934639772879348E+08, 1.017801983765422E+08,
2460259.500000000, A.D. 2023-Nov-11 00:00:00.0000, -4.021210681406711E+08, -2.015208954215722E+08, 1.015513644583998E+08,
2460266.500000000, A.D. 2023-Nov-18 00:00:00.0000, -3.974322219447312E+08, -2.094780814782471E+08, 1.012722487224873E+08,
2460273.500000000, A.D. 2023-Nov-25 00:00:00.0000, -3.925458938256745E+08, -2.173312028110177E+08, 1.009427994183478E+08,
2460280.500000000, A.D. 2023-Dec-02 00:00:00.0000, -3.874637143896382E+08, -2.250759154467054E+08, 1.005629755768069E+08,
2460287.500000000, A.D. 2023-Dec-09 00:00:00.0000, -3.821873726813750E+08, -2.327078631313729E+08, 1.001327472734772E+08,
2460294.500000000, A.D. 2023-Dec-16 00:00:00.0000, -3.767186178795295E+08, -2.402226765789143E+08, 9.965209587693718E+07,
2460301.500000000, A.D. 2023-Dec-23 00:00:00.0000, -3.710592604037781E+08, -2.476159722387641E+08, 9.912101430675423E+07,
2460308.500000000, A.D. 2023-Dec-30 00:00:00.0000, -3.652111737769603E+08, -2.548833495370808E+08, 9.853950751085672E+07,
2460315.500000000, A.D. 2024-Jan-06 00:00:00.0000, -3.591762990178035E+08, -2.620203889565162E+08, 9.790759313276885E+07,
2460322.500000000, A.D. 2024-Jan-13 00:00:00.0000, -3.529566483960783E+08, -2.690226527665426E+08, 9.722530193135574E+07,
2460329.500000000, A.D. 2024-Jan-20 00:00:00.0000, -3.465543073313600E+08, -2.758856853235404E+08, 9.649267809407951E+07,
2460336.500000000, A.D. 2024-Jan-27 00:00:00.0000, -3.399714364667607E+08, -2.826050122912229E+08, 9.570977968330620E+07,
2460343.500000000, A.D. 2024-Feb-03 00:00:00.0000, -3.332102743469798E+08, -2.891761397343106E+08, 9.487667917711398E+07,
2460350.500000000, A.D. 2024-Feb-10 00:00:00.0000, -3.262731404246007E+08, -2.955945533837622E+08, 9.399346405566172E+07,
2460357.500000000, A.D. 2024-Feb-17 00:00:00.0000, -3.191624382591180E+08, -3.018557180750208E+08, 9.306023742252611E+07,
2460364.500000000, A.D. 2024-Feb-24 00:00:00.0000, -3.118806588778830E+08, -3.079550773544065E+08, 9.207711866125879E+07,
2460371.500000000, A.D. 2024-Mar-02 00:00:00.0000, -3.044303842755578E+08, -3.138880532956257E+08, 9.104424412429857E+07,
2460378.500000000, A.D. 2024-Mar-09 00:00:00.0000, -2.968142909189427E+08, -3.196500465983190E+08, 8.996176783854875E+07,
2460385.500000000, A.D. 2024-Mar-16 00:00:00.0000, -2.890351528668211E+08, -3.252364367805880E+08, 8.882986220931932E+07,
2460392.500000000, A.D. 2024-Mar-23 00:00:00.0000, -2.810958446125079E+08, -3.306425813661018E+08, 8.764871882432014E+07,
2460399.500000000, A.D. 2024-Mar-30 00:00:00.0000, -2.729993458933059E+08, -3.358638141030349E+08, 8.641854956239499E+07,
2460406.500000000, A.D. 2024-Apr-06 00:00:00.0000, -2.647487482135611E+08, -3.408954455950754E+08, 8.513958770985119E+07,
2460413.500000000, A.D. 2024-Apr-13 00:00:00.0000, -2.563472595340864E+08, -3.457327655228894E+08, 8.381208882932997E+07,
2460420.500000000, A.D. 2024-Apr-20 00:00:00.0000, -2.477982080844437E+08, -3.503710437942629E+08, 8.243633168972473E+07,
2460427.500000000, A.D. 2024-Apr-27 00:00:00.0000, -2.391050468184785E+08, -3.548055311990245E+08, 8.101261935239317E+07,
2460434.500000000, A.D. 2024-May-04 00:00:00.0000, -2.302713584275260E+08, -3.590314602877336E+08, 7.954128034978049E+07,
2460441.500000000, A.D. 2024-May-11 00:00:00.0000, -2.213008606744980E+08, -3.630440465931051E+08, 7.802266992789713E+07,
2460448.500000000, A.D. 2024-May-18 00:00:00.0000, -2.121974119679779E+08, -3.668384901914384E+08, 7.645717134870578E+07,
2460455.500000000, A.D. 2024-May-25 00:00:00.0000, -2.029650171522765E+08, -3.704099776314200E+08, 7.484519725152092E+07,
2460462.500000000, A.D. 2024-Jun-01 00:00:00.0000, -1.936078334532984E+08, -3.737536843091613E+08, 7.318719106515098E+07,
2460469.500000000, A.D. 2024-Jun-08 00:00:00.0000, -1.841301763322114E+08, -3.768647773354482E+08, 7.148362844818693E+07,
2460476.500000000, A.D. 2024-Jun-15 00:00:00.0000, -1.745365248444837E+08, -3.797384183751085E+08, 6.973501876729585E+07,
2460483.500000000, A.D. 2024-Jun-22 00:00:00.0000, -1.648315275053622E+08, -3.823697653100119E+08, 6.794190680371276E+07,
2460490.500000000, A.D. 2024-Jun-29 00:00:00.0000, -1.550200107774825E+08, -3.847539745747737E+08, 6.610487473543710E+07,
2460497.500000000, A.D. 2024-Jul-06 00:00:00.0000, -1.451069875281554E+08, -3.868862066676862E+08, 6.422454395237099E+07,
2460504.500000000, A.D. 2024-Jul-13 00:00:00.0000, -1.350976634991390E+08, -3.887616320470535E+08, 6.230157675838384E+07,
2460511.500000000, A.D. 2024-Jul-20 00:00:00.0000, -1.249974437650540E+08, -3.903754362990742E+08, 6.033667823768346E+07,
2460518.500000000, A.D. 2024-Jul-27 00:00:00.0000, -1.148119398239766E+08, -3.917228255720538E+08, 5.833059826767543E+07,
2460525.500000000, A.D. 2024-Aug-03 00:00:00.0000, -1.045469770313945E+08, -3.927990326884094E+08, 5.628413362220621E+07,
2460532.500000000, A.D. 2024-Aug-10 00:00:00.0000, -9.420860219199167E+07, -3.935993239771186E+08, 5.419813014844269E+07,
2460539.500000000, A.D. 2024-Aug-17 00:00:00.0000, -8.380309123810887E+07, -3.941190068454693E+08, 5.207348501316158E+07,
2460546.500000000, A.D. 2024-Aug-24 00:00:00.0000, -7.333695693950371E+07, -3.943534381555580E+08, 4.991114901209453E+07,
2460553.500000000, A.D. 2024-Aug-31 00:00:00.0000, -6.281695649753249E+07, -3.942980335121993E+08, 4.771212892419791E+07,
2460560.500000000, A.D. 2024-Sep-07 00:00:00.0000, -5.225009862270677E+07, -3.939482773824316E+08, 4.547748988429582E+07,
2460567.500000000, A.D. 2024-Sep-14 00:00:00.0000, -4.164364997006361E+07, -3.932997330982408E+08, 4.320835784324862E+07,
2460574.500000000, A.D. 2024-Sep-21 00:00:00.0000, -3.100514291567762E+07, -3.923480523770684E+08, 4.090592232963327E+07,
2460581.500000000, A.D. 2024-Sep-28 00:00:00.0000, -2.034238510986490E+07, -3.910889876336509E+08, 3.857143928633043E+07,
2460588.500000000, A.D. 2024-Oct-05 00:00:00.0000, -9.663467078297308E+06, -3.895184071273349E+08, 3.620623363655232E+07,
2460595.500000000, A.D. 2024-Oct-12 00:00:00.0000, 1.023231834872854E+06, -3.876323100095370E+08, 3.381170184537537E+07,
2460602.500000000, A.D. 2024-Oct-19 00:00:00.0000, 1.170903750713881E+07, -3.854268415845737E+08, 3.138931460282592E+07,
2460609.500000000, A.D. 2024-Oct-26 00:00:00.0000, 2.238497511534187E+07, -3.828983096274664E+08, 2.894061955215101E+07,
2460616.500000000, A.D. 2024-Nov-02 00:00:00.0000, 3.304176360366309E+07, -3.800432019499549E+08, 2.646724401244015E+07,
2460623.500000000, A.D. 2024-Nov-09 00:00:00.0000, 4.366981074109747E+07, -3.768582052346640E+08, 2.397089767136241E+07,
2460630.500000000, A.D. 2024-Nov-16 00:00:00.0000, 5.425920890520350E+07, -3.733402251719995E+08, 2.145337522582069E+07,
2460637.500000000, A.D. 2024-Nov-23 00:00:00.0000, 6.479973176012038E+07, -3.694864079772228E+08, 1.891655893933541E+07,
2460644.500000000, A.D. 2024-Nov-30 00:00:00.0000, 7.528083216889812E+07, -3.652941633500097E+08, 1.636242106786184E+07,
2460651.500000000, A.D. 2024-Dec-07 00:00:00.0000, 8.569164190179318E+07, -3.607611884660664E+08, 1.379302612113944E+07,
2460658.500000000, A.D. 2024-Dec-14 00:00:00.0000, 9.602097260450870E+07, -3.558854917752011E+08, 1.121053309056926E+07,
2460665.500000000, A.D. 2024-Dec-21 00:00:00.0000, 1.062573158708417E+08, -3.506654178300344E+08, 8.617197719088659E+06,
2460672.500000000, A.D. 2024-Dec-28 00:00:00.0000, 1.163888445666267E+08, -3.450996760797905E+08, 6.015374350348756E+06,
2460679.500000000, A.D. 2025-Jan-04 00:00:00.0000, 1.264034181873828E+08, -3.391873712054022E+08, 3.407517270881042E+06,
2460686.500000000, A.D. 2025-Jan-11 00:00:00.0000, 1.362885906212209E+08, -3.329280332708436E+08, 7.961818025240749E+05,
2460693.500000000, A.D. 2025-Jan-18 00:00:00.0000, 1.460316195990351E+08, -3.263216485214204E+08, -1.815974894764259E+06,
2460700.500000000, A.D. 2025-Jan-25 00:00:00.0000, 1.556194782795368E+08, -3.193686911902397E+08, -4.426193423044801E+06,
2460707.500000000, A.D. 2025-Feb-01 00:00:00.0000, 1.650388693654586E+08, -3.120701562024987E+08, -7.031612224564597E+06,
2460714.500000000, A.D. 2025-Feb-08 00:00:00.0000, 1.742762420155903E+08, -3.044275925873864E+08, -9.629268199663565E+06,
$$EOE